[
    {
        "Altitude(m)": 555411.1318926752,
        "Argument of Periapsis(deg)": 0.013245982221427002,
        "Eccentricity": 0.0,
        "Inclination(deg)": 53.0,
        "Latitude(deg)": 32.137692590456844,
        "Longitude(deg)": -139.66309136466714,
        "Mean Anomaly(deg)": 138.36508573515513,
        "RAAN(deg)": 169.98028673705605,
        "Satellite Name": "Starlink Shell 1 755",
        "Satellite Number": 755,
        "Semi-Major Axis(m)": 6931778.249405717,
        "Time(s)": 380
    },
    {
        "Altitude(m)": 555333.950908008,
        "Argument of Periapsis(deg)": 0.013594560700938237,
        "Eccentricity": 0.0,
        "Inclination(deg)": 53.0,
        "Latitude(deg)": 31.693101567299646,
        "Longitude(deg)": -139.18249091889766,
        "Mean Anomaly(deg)": 138.9919169387119,
        "RAAN(deg)": 169.97976796697856,
        "Satellite Name": "Starlink Shell 1 755",
        "Satellite Number": 755,
        "Semi-Major Axis(m)": 6931778.249405717,
        "Time(s)": 390
    },
    {
        "Altitude(m)": 555257.6268295395,
        "Argument of Periapsis(deg)": 0.013943139180449475,
        "Eccentricity": 0.0,
        "Inclination(deg)": 53.0,
        "Latitude(deg)": 31.246364228524783,
        "Longitude(deg)": -138.70685070497186,
        "Mean Anomaly(deg)": 139.6187481422686,
        "RAAN(deg)": 169.9792491969011,
        "Satellite Name": "Starlink Shell 1 755",
        "Satellite Number": 755,
        "Semi-Major Axis(m)": 6931778.249405717,
        "Time(s)": 400
    },
    {
        "Altitude(m)": 555182.2143116565,
        "Argument of Periapsis(deg)": 0.014291717659960712,
        "Eccentricity": 0.0,
        "Inclination(deg)": 53.0,
        "Latitude(deg)": 30.79753670450238,
        "Longitude(deg)": -138.23606102640935,
        "Mean Anomaly(deg)": 140.24557934582532,
        "RAAN(deg)": 169.9787304268236,
        "Satellite Name": "Starlink Shell 1 755",
        "Satellite Number": 755,
        "Semi-Major Axis(m)": 6931778.249405717,
        "Time(s)": 410
    },
    {
        "Altitude(m)": 555107.767747128,
        "Argument of Periapsis(deg)": 0.014640296139471948,
        "Eccentricity": 0.0,
        "Inclination(deg)": 53.0,
        "Latitude(deg)": 30.346673868450893,
        "Longitude(deg)": -137.7700139269766,
        "Mean Anomaly(deg)": 140.87241054938204,
        "RAAN(deg)": 169.97821165674617,
        "Satellite Name": "Starlink Shell 1 755",
        "Satellite Number": 755,
        "Semi-Major Axis(m)": 6931778.249405717,
        "Time(s)": 420
    },
    {
        "Altitude(m)": 555034.3412385801,
        "Argument of Periapsis(deg)": 0.014988874618983185,
        "Eccentricity": 0.0,
        "Inclination(deg)": 53.0,
        "Latitude(deg)": 29.893829368867582,
        "Longitude(deg)": -137.3086027113651,
        "Mean Anomaly(deg)": 141.49924175293873,
        "RAAN(deg)": 169.97769288666868,
        "Satellite Name": "Starlink Shell 1 755",
        "Satellite Number": 755,
        "Semi-Major Axis(m)": 6931778.249405717,
        "Time(s)": 430
    },
    {
        "Altitude(m)": 554961.98857002,
        "Argument of Periapsis(deg)": 0.015337453098494424,
        "Eccentricity": 0.0,
        "Inclination(deg)": 53.0,
        "Latitude(deg)": 29.43905566168469,
        "Longitude(deg)": -136.85172146116625,
        "Mean Anomaly(deg)": 142.12607295649553,
        "RAAN(deg)": 169.97717411659121,
        "Satellite Name": "Starlink Shell 1 755",
        "Satellite Number": 755,
        "Semi-Major Axis(m)": 6931778.249405717,
        "Time(s)": 440
    },
    {
        "Altitude(m)": 554890.7631784893,
        "Argument of Periapsis(deg)": 0.01568603157800566,
        "Eccentricity": 0.0,
        "Inclination(deg)": 53.0,
        "Latitude(deg)": 28.982404042110474,
        "Longitude(deg)": -136.39926605935943,
        "Mean Anomaly(deg)": 142.7529041600522,
        "RAAN(deg)": 169.97665534651372,
        "Satellite Name": "Starlink Shell 1 755",
        "Satellite Number": 755,
        "Semi-Major Axis(m)": 6931778.249405717,
        "Time(s)": 450
    },
    {
        "Altitude(m)": 554820.7181258445,
        "Argument of Periapsis(deg)": 0.0160346100575169,
        "Eccentricity": 0.0,
        "Inclination(deg)": 53.0,
        "Latitude(deg)": 28.523924676110607,
        "Longitude(deg)": -135.9511336978885,
        "Mean Anomaly(deg)": 143.37973536360894,
        "RAAN(deg)": 169.97613657643626,
        "Satellite Name": "Starlink Shell 1 755",
        "Satellite Number": 755,
        "Semi-Major Axis(m)": 6931778.249405717,
        "Time(s)": 460
    },
    {
        "Altitude(m)": 554751.9060706836,
        "Argument of Periapsis(deg)": 0.016383188537028134,
        "Eccentricity": 0.0,
        "Inclination(deg)": 53.0,
        "Latitude(deg)": 28.063666631500187,
        "Longitude(deg)": -135.50722238150772,
        "Mean Anomaly(deg)": 144.0065665671656,
        "RAAN(deg)": 169.97561780635877,
        "Satellite Name": "Starlink Shell 1 755",
        "Satellite Number": 755,
        "Semi-Major Axis(m)": 6931778.249405717,
        "Time(s)": 470
    },
    {
        "Altitude(m)": 554684.3792404266,
        "Argument of Periapsis(deg)": 0.01673176701653937,
        "Eccentricity": 0.0,
        "Inclination(deg)": 53.0,
        "Latitude(deg)": 27.60167790861716,
        "Longitude(deg)": -135.06743194105223,
        "Mean Anomaly(deg)": 144.63339777072233,
        "RAAN(deg)": 169.97509903628134,
        "Satellite Name": "Starlink Shell 1 755",
        "Satellite Number": 755,
        "Semi-Major Axis(m)": 6931778.249405717,
        "Time(s)": 480
    },
    {
        "Altitude(m)": 554618.189403546,
        "Argument of Periapsis(deg)": 0.017080345496050607,
        "Eccentricity": 0.0,
        "Inclination(deg)": 53.0,
        "Latitude(deg)": 27.138005470550734,
        "Longitude(deg)": -134.6316635306631,
        "Mean Anomaly(deg)": 145.26022897427907,
        "RAAN(deg)": 169.97458026620384,
        "Satellite Name": "Starlink Shell 1 755",
        "Satellite Number": 755,
        "Semi-Major Axis(m)": 6931778.249405717,
        "Time(s)": 490
    },
    {
        "Altitude(m)": 554553.387842029,
        "Argument of Periapsis(deg)": 0.017428923975561842,
        "Eccentricity": 0.0,
        "Inclination(deg)": 53.0,
        "Latitude(deg)": 26.672695272902445,
        "Longitude(deg)": -134.19981912208934,
        "Mean Anomaly(deg)": 145.88706017783574,
        "RAAN(deg)": 169.97406149612638,
        "Satellite Name": "Starlink Shell 1 755",
        "Satellite Number": 755,
        "Semi-Major Axis(m)": 6931778.249405717,
        "Time(s)": 500
    },
    {
        "Altitude(m)": 554490.0253239962,
        "Argument of Periapsis(deg)": 0.01777750245507308,
        "Eccentricity": 0.0,
        "Inclination(deg)": 53.0,
        "Latitude(deg)": 26.205792293066622,
        "Longitude(deg)": -133.77180250917883,
        "Mean Anomaly(deg)": 146.5138913813925,
        "RAAN(deg)": 169.9735427260489,
        "Satellite Name": "Starlink Shell 1 755",
        "Satellite Number": 755,
        "Semi-Major Axis(m)": 6931778.249405717,
        "Time(s)": 510
    },
    {
        "Altitude(m)": 554428.1520765567,
        "Argument of Periapsis(deg)": 0.018126080934584315,
        "Eccentricity": 0.0,
        "Inclination(deg)": 53.0,
        "Latitude(deg)": 25.737340559011102,
        "Longitude(deg)": -133.3475187970381,
        "Mean Anomaly(deg)": 147.14072258494915,
        "RAAN(deg)": 169.9730239559714,
        "Satellite Name": "Starlink Shell 1 755",
        "Satellite Number": 755,
        "Semi-Major Axis(m)": 6931778.249405717,
        "Time(s)": 520
    },
    {
        "Altitude(m)": 554367.8177588644,
        "Argument of Periapsis(deg)": 0.018474659414095554,
        "Eccentricity": 0.0,
        "Inclination(deg)": 53.0,
        "Latitude(deg)": 25.267383177547508,
        "Longitude(deg)": -132.92687388893853,
        "Mean Anomaly(deg)": 147.76755378850595,
        "RAAN(deg)": 169.97250518589394,
        "Satellite Name": "Starlink Shell 1 755",
        "Satellite Number": 755,
        "Semi-Major Axis(m)": 6931778.249405717,
        "Time(s)": 530
    },
    {
        "Altitude(m)": 554309.0714354643,
        "Argument of Periapsis(deg)": 0.018823237893606792,
        "Eccentricity": 0.0,
        "Inclination(deg)": 53.0,
        "Latitude(deg)": 24.79596236208656,
        "Longitude(deg)": -132.50977548404026,
        "Mean Anomaly(deg)": 148.39438499206264,
        "RAAN(deg)": 169.9719864158165,
        "Satellite Name": "Starlink Shell 1 755",
        "Satellite Number": 755,
        "Semi-Major Axis(m)": 6931778.249405717,
        "Time(s)": 540
    },
    {
        "Altitude(m)": 554251.9615498468,
        "Argument of Periapsis(deg)": 0.019171816373118027,
        "Eccentricity": 0.0,
        "Inclination(deg)": 53.0,
        "Latitude(deg)": 24.323119459865364,
        "Longitude(deg)": -132.09613256036857,
        "Mean Anomaly(deg)": 149.02121619561936,
        "RAAN(deg)": 169.971467645739,
        "Satellite Name": "Starlink Shell 1 755",
        "Satellite Number": 755,
        "Semi-Major Axis(m)": 6931778.249405717,
        "Time(s)": 550
    },
    {
        "Altitude(m)": 554196.5358982913,
        "Argument of Periapsis(deg)": 0.019520394852629266,
        "Eccentricity": 0.0,
        "Inclination(deg)": 53.0,
        "Latitude(deg)": 23.848894978646335,
        "Longitude(deg)": -131.68585485608563,
        "Mean Anomaly(deg)": 149.64804739917605,
        "RAAN(deg)": 169.97094887566152,
        "Satellite Name": "Starlink Shell 1 755",
        "Satellite Number": 755,
        "Semi-Major Axis(m)": 6931778.249405717,
        "Time(s)": 560
    }
]